      2.10          N: GNSS NAV DATA                        RINEX VERSION / TYPE
fic2rin                                 06/04/2018 00:16:14 PGM / RUN BY / DATE
                                                            END OF HEADER
27 18  6  3 14  0  0.0 3.672754392028e-04-1.250555214938e-12 0.000000000000e+00
    4.800000000000e+01-1.521875000000e+01 4.384111187257e-09 2.450034926932e-02
   -8.121132850647e-07 5.973872612230e-03 2.365559339523e-06 5.153682723999e+03
    5.040000000000e+04 7.264316082001e-08 2.355070179132e+00 1.303851604462e-08
    9.774795178654e-01 3.381875000000e+02 4.303983430871e-01-8.281416382805e-09
   -1.507205638307e-10 1.000000000000e+00 2.004000000000e+03 0.000000000000e+00
    2.400000000000e+00 0.000000000000e+00 1.396983861923e-09 4.800000000000e+01
    4.320600000000e+04 4.000000000000e+00
18 18  6  3 14  0  0.0 1.713121309876e-05 4.661160346586e-12 0.000000000000e+00
    1.020000000000e+02-1.080312500000e+02 4.377682348041e-09-2.424546445257e+00
   -5.470588803291e-06 1.458383048885e-02 7.210299372673e-06 5.153658678055e+03
    5.040000000000e+04 1.434236764908e-07-2.919370357596e+00-2.235174179077e-08
    9.500443574352e-01 2.314062500000e+02 1.308515464373e+00-7.799967757108e-09
   -6.178828801592e-11 1.000000000000e+00 2.004000000000e+03 0.000000000000e+00
    2.400000000000e+00 0.000000000000e+00-6.984919309616e-09 1.020000000000e+02
    4.320600000000e+04 4.000000000000e+00
22 18  6  3 13 59 44.0-4.136320203543e-04-1.273292582482e-11 0.000000000000e+00
    2.600000000000e+01-8.406250000000e+00 5.150214527108e-09-6.631568047656e-01
   -3.874301910400e-07 7.381210918538e-03 9.566545486450e-06 5.153799613953e+03
    5.038400000000e+04-1.005828380585e-07-1.889305218014e+00 1.601874828339e-07
    9.248347298901e-01 1.782187500000e+02-1.533714013071e+00-8.342133197618e-09
    5.225217651289e-10 1.000000000000e+00 2.004000000000e+03 0.000000000000e+00
    2.400000000000e+00 0.000000000000e+00-1.769512891769e-08 2.600000000000e+01
    4.713600000000e+04 4.000000000000e+00
17 18  6  3 13 59 44.0-9.179767221212e-05 3.751665644813e-12 0.000000000000e+00
    2.000000000000e+00-1.425000000000e+01 4.278035340201e-09-8.249835241038e-02
   -6.817281246185e-07 1.234975853004e-02 2.928078174591e-06 5.153566429138e+03
    5.038400000000e+04-1.657754182816e-07 2.409172958078e+00 9.685754776001e-08
    9.827907268015e-01 3.366562500000e+02-1.778045201280e+00-8.382134863848e-09
   -1.057186893220e-10 1.000000000000e+00 2.004000000000e+03 0.000000000000e+00
    2.400000000000e+00 0.000000000000e+00-1.117587089539e-08 2.000000000000e+00
    4.770600000000e+04 4.000000000000e+00
22 18  6  3 15 59 44.0-4.137232899666e-04-1.273292582482e-11 0.000000000000e+00
    2.700000000000e+01-1.040625000000e+01 5.194502086148e-09 3.869276606787e-01
   -5.122274160385e-07 7.379981456324e-03 9.214505553246e-06 5.153797246933e+03
    5.758400000000e+04-1.601874828339e-07-1.889363730349e+00-1.657754182816e-07
    9.248376425600e-01 1.868437500000e+02-1.533690016825e+00-8.319989418098e-09
    2.503675716715e-10 1.000000000000e+00 2.004000000000e+03 0.000000000000e+00
    2.400000000000e+00 0.000000000000e+00-1.769512891769e-08 2.700000000000e+01
    5.040600000000e+04 4.000000000000e+00
17 18  6  3 15 59 44.0-9.177112951875e-05 3.751665644813e-12 0.000000000000e+00
    1.800000000000e+01-1.496875000000e+01 4.329466053925e-09 9.677476162641e-01
   -8.717179298401e-07 1.234943885356e-02 2.974644303322e-06 5.153565866470e+03
    5.758400000000e+04-2.309679985046e-07 2.409112785332e+00-3.539025783539e-08
    9.827896852038e-01 3.393750000000e+02-1.778045978089e+00-8.353919402846e-09
   -1.464346710204e-10 1.000000000000e+00 2.004000000000e+03 0.000000000000e+00
    2.400000000000e+00 0.000000000000e+00-1.117587089539e-08 1.800000000000e+01
    5.040600000000e+04 4.000000000000e+00
 2 18  6  3 16  0  0.0 9.649572893977e-05-1.102762325900e-11 0.000000000000e+00
    1.600000000000e+01-9.290625000000e+01 4.810557521887e-09-7.693327364479e-01
   -4.706904292107e-06 1.788738439791e-02 7.072463631630e-06 5.153750785828e+03
    5.760000000000e+04-1.303851604462e-07-2.933401889540e+00 2.849847078323e-07
    9.507309721840e-01 2.413750000000e+02-1.855142351885e+00-8.527855219400e-09
   -1.657211886670e-10 1.000000000000e+00 2.004000000000e+03 0.000000000000e+00
    2.400000000000e+00 0.000000000000e+00-2.048909664154e-08 1.600000000000e+01
    5.040600000000e+04 4.000000000000e+00
 1 18  6  3 16  0  0.0-5.308678373694e-05-3.183231456205e-12 0.000000000000e+00
    5.200000000000e+01-8.693750000000e+01 4.124814672231e-09-1.104164022029e+00
   -4.595145583153e-06 7.830860675313e-03 7.672235369682e-06 5.153670188904e+03
    5.760000000000e+04 2.160668373108e-07-2.872152806979e+00 3.166496753693e-08
    9.716597181446e-01 2.370937500000e+02 6.342684034592e-01-7.851755628567e-09
   -1.978653847446e-10 1.000000000000e+00 2.004000000000e+03 0.000000000000e+00
    2.400000000000e+00 0.000000000000e+00 5.587935447693e-09 5.200000000000e+01
    5.040600000000e+04 4.000000000000e+00
 3 18  6  3 16  0  0.0 8.255057036877e-05 6.934897101019e-12 0.000000000000e+00
    1.900000000000e+01-1.075000000000e+01 4.277678182466e-09-1.975097740097e+00
   -5.010515451431e-07 1.400212291628e-03 9.400770068169e-06 5.153746917725e+03
    5.760000000000e+04-1.564621925354e-07-1.829504716935e+00-2.048909664154e-08
    9.607162043833e-01 1.991562500000e+02 4.289252913743e-01-7.736393680421e-09
    3.725155167665e-10 1.000000000000e+00 2.004000000000e+03 0.000000000000e+00
    2.400000000000e+00 0.000000000000e+00 2.328306436539e-09 1.900000000000e+01
    5.040600000000e+04 4.000000000000e+00
14 18  6  3 16  0  0.0-9.723519906402e-05-2.273736754432e-13 0.000000000000e+00
    2.700000000000e+01 8.718750000000e+00 4.770555855657e-09 7.130753702914e-01
    3.632158041000e-07 9.918835945427e-03 6.295740604401e-06 5.153585735321e+03
    5.760000000000e+04-1.341104507446e-07-7.055474425516e-01 2.793967723846e-08
    9.609426801940e-01 2.574687500000e+02-1.952054878555e+00-8.253200921803e-09
   -4.964492505326e-11 1.000000000000e+00 2.004000000000e+03 0.000000000000e+00
    2.400000000000e+00 0.000000000000e+00-9.778887033463e-09 2.700000000000e+01
    5.040600000000e+04 4.000000000000e+00
23 18  6  3 16  0  0.0-2.163322642446e-04 4.547473508865e-13 0.000000000000e+00
    2.000000000000e+01 9.000000000000e+00 5.220574600744e-09-2.535005100338e-01
    6.631016731262e-07 1.255672180559e-02 5.867332220078e-06 5.153780286789e+03
    5.760000000000e+04 5.774199962616e-08-7.970995374809e-01 1.899898052216e-07
    9.434133038080e-01 2.591562500000e+02-2.358789196307e+00-8.504639966677e-09
    1.078616357272e-10 1.000000000000e+00 2.004000000000e+03 0.000000000000e+00
    2.400000000000e+00 0.000000000000e+00-2.002343535423e-08 2.000000000000e+01
    5.040600000000e+04 4.000000000000e+00
12 18  6  3 16  0  0.0 3.296965733171e-04-2.387423592154e-12 0.000000000000e+00
    2.400000000000e+01 8.737500000000e+01 3.989451890970e-09-2.379817744001e+00
    4.578381776810e-06 7.199549931102e-03 7.154420018196e-06 5.153588052750e+03
    5.760000000000e+04 1.657754182816e-07 1.374612552119e+00-2.235174179077e-08
    9.863757362915e-01 2.542500000000e+02 9.884001354958e-01-7.769252191967e-09
    1.932223342001e-10 1.000000000000e+00 2.004000000000e+03 0.000000000000e+00
    2.400000000000e+00 0.000000000000e+00-1.257285475731e-08 2.400000000000e+01
    5.040600000000e+04 4.000000000000e+00
10 18  6  3 16  0  0.0 1.872428692877e-04 1.136868377216e-12 0.000000000000e+00
    1.400000000000e+01-1.178125000000e+01 4.306250801202e-09 3.074523917599e+00
   -5.457550287247e-07 3.562579862773e-03 9.041279554367e-06 5.153666393280e+03
    5.760000000000e+04 1.490116119385e-08-1.832957301618e+00-4.470348358154e-08
    9.608082307080e-01 2.058750000000e+02-2.742627137429e+00-7.781395554930e-09
    3.793015137162e-10 1.000000000000e+00 2.004000000000e+03 0.000000000000e+00
    2.400000000000e+00 0.000000000000e+00 1.862645149231e-09 1.400000000000e+01
    5.040600000000e+04 4.000000000000e+00
 8 18  6  3 16  0  0.0-1.034997403622e-04-1.364242052659e-12 0.000000000000e+00
    7.300000000000e+01-1.021875000000e+01 4.569476051305e-09 1.367736006209e+00
   -3.743916749954e-07 3.466771915555e-03 2.136453986168e-06 5.153574169159e+03
    5.760000000000e+04 5.774199962616e-08 2.346496515124e+00-1.862645149231e-08
    9.692797976627e-01 3.370625000000e+02-4.229695075663e-01-8.266415757968e-09
   -1.639353999960e-10 1.000000000000e+00 2.004000000000e+03 0.000000000000e+00
    3.400000000000e+00 0.000000000000e+00 5.122274160385e-09 7.300000000000e+01
    5.040600000000e+04 4.000000000000e+00
 5 18  6  3 16  0  0.0-6.783753633499e-06 6.821210263297e-13 0.000000000000e+00
    9.400000000000e+01-2.296875000000e+01 4.653408118841e-09 1.899284026540e+00
   -1.169741153717e-06 5.367994774133e-03 9.475275874138e-06 5.153717855453e+03
    5.760000000000e+04-7.078051567078e-08-1.851439040599e+00 1.117587089539e-08
    9.476195809592e-01 1.923437500000e+02 6.122019797555e-01-8.019976921373e-09
    3.450143712334e-10 1.000000000000e+00 2.004000000000e+03 0.000000000000e+00
    2.400000000000e+00 0.000000000000e+00-1.117587089539e-08 9.400000000000e+01
    5.040600000000e+04 4.000000000000e+00
26 18  6  3 16  0  0.0-1.277104020119e-04 1.250555214938e-11 0.000000000000e+00
    2.500000000000e+01 7.931250000000e+01 4.650908014701e-09 2.899200288266e+00
    4.174187779427e-06 2.790288068354e-03 6.806105375290e-06 5.153670917511e+03
    5.760000000000e+04-6.332993507385e-08 1.292643495173e+00-1.303851604462e-08
    9.555830589100e-01 2.467187500000e+02 1.262760837686e-01-8.053192590653e-09
    9.036090675161e-11 1.000000000000e+00 2.004000000000e+03 0.000000000000e+00
    2.400000000000e+00 0.000000000000e+00 7.450580596924e-09 2.500000000000e+01
    5.040600000000e+04 4.000000000000e+00
